[{"OBJECT_NAME":"STARLINK-34983","OBJECT_ID":"2025-192H","EPOCH":"2026-03-09T16:02:59.594784","MEAN_MOTION":15.31032253,"ECCENTRICITY":9.997e-5,"INCLINATION":53.1603,"RA_OF_ASC_NODE":232.2609,"ARG_OF_PERICENTER":75.2224,"MEAN_ANOMALY":284.8888,"EPHEMERIS_TYPE":0,"CLASSIFICATION_TYPE":"U","NORAD_CAT_ID":65411,"ELEMENT_SET_NO":999,"REV_AT_EPOCH":2938,"BSTAR":0.0015107501,"MEAN_MOTION_DOT":0.00045835,"MEAN_MOTION_DDOT":0},{"OBJECT_NAME":"CZ-4B R\/B","OBJECT_ID":"2014-079B","EPOCH":"2026-03-09T22:52:27.338880","MEAN_MOTION":15.04904185,"ECCENTRICITY":0.01415279,"INCLINATION":98.4648,"RA_OF_ASC_NODE":154.7469,"ARG_OF_PERICENTER":308.4035,"MEAN_ANOMALY":50.4548,"EPHEMERIS_TYPE":0,"CLASSIFICATION_TYPE":"U","NORAD_CAT_ID":40337,"ELEMENT_SET_NO":999,"REV_AT_EPOCH":61279,"BSTAR":0.00019142184,"MEAN_MOTION_DOT":3.298e-5,"MEAN_MOTION_DDOT":0}]
